start=new Date('2023-02-02T00:00:00.000Z').valueOf();
sats=[{"APOAPSIS":"547.960","OBJECT_TYPE":"PAYLOAD","RCS_SIZE":"LARGE","EPOCH":"2023-02-01T11:34:09.753312","COUNTRY_CODE":"US","TLE_LINE1":"1 46585U 20070BF  23032.48205733 -.00000083  00000-0  13329-4 0  9993","TIME_SYSTEM":"UTC","ECCENTRICITY":"0.00010610","MEAN_ANOMALY":"272.1644","NORAD_CAT_ID":"46585","PERIOD":"95.592","MEAN_MOTION":"15.06396192","OBJECT_NAME":"STARLINK-1736","ELEMENT_SET_NO":"999","CLASSIFICATION_TYPE":"U","MEAN_ELEMENT_THEORY":"SGP4","REV_AT_EPOCH":"12913","INCLINATION":"53.0524","LAUNCH_DATE":"2020-10-06","FILE":"3767525","CENTER_NAME":"EARTH","MEAN_MOTION_DOT":"-0.00000083","ARG_OF_PERICENTER":"87.9466","PERIAPSIS":"546.490","DECAY_DATE":null,"TLE_LINE2":"2 46585  53.0524 199.2942 0001061  87.9466 272.1644 15.06396192129137","RA_OF_ASC_NODE":"199.2942","OBJECT_ID":"2020-070BF","GP_ID":"224194586","MEAN_MOTION_DDOT":"0.0000000000000","REF_FRAME":"TEME","BSTAR":"0.00001332900000","SEMIMAJOR_AXIS":"6925.360","SITE":"AFETR","EPHEMERIS_TYPE":"0"},{"OBJECT_TYPE":"PAYLOAD","APOAPSIS":"548.061","RCS_SIZE":"LARGE","TLE_LINE1":"1 46586U 20070BG  23031.80847713  .00000071  00000-0  23685-4 0  9991","COUNTRY_CODE":"US","EPOCH":"2023-01-31T19:24:12.424032","MEAN_ANOMALY":"273.1530","NORAD_CAT_ID":"46586","ECCENTRICITY":"0.00012080","TIME_SYSTEM":"UTC","OBJECT_NAME":"STARLINK-1737","PERIOD":"95.592","MEAN_MOTION":"15.06396367","INCLINATION":"53.0546","REV_AT_EPOCH":"12903","MEAN_ELEMENT_THEORY":"SGP4","CLASSIFICATION_TYPE":"U","ELEMENT_SET_NO":"999","ARG_OF_PERICENTER":"86.9597","DECAY_DATE":null,"PERIAPSIS":"546.388","FILE":"3766747","CENTER_NAME":"EARTH","LAUNCH_DATE":"2020-10-06","MEAN_MOTION_DOT":"0.00000071","GP_ID":"224123738","TLE_LINE2":"2 46586  53.0546 202.3119 0001208  86.9597 273.1530 15.06396367129039","RA_OF_ASC_NODE":"202.3119","OBJECT_ID":"2020-070BG","SITE":"AFETR","EPHEMERIS_TYPE":"0","MEAN_MOTION_DDOT":"0.0000000000000","SEMIMAJOR_AXIS":"6925.360","REF_FRAME":"TEME","BSTAR":"0.00002368500000"},{"ELEMENT_SET_NO":"999","CLASSIFICATION_TYPE":"U","REV_AT_EPOCH":"12913","MEAN_ELEMENT_THEORY":"SGP4","INCLINATION":"53.0495","MEAN_MOTION_DOT":"0.00011110","FILE":"3767525","CENTER_NAME":"EARTH","LAUNCH_DATE":"2020-10-06","PERIAPSIS":"546.439","DECAY_DATE":null,"ARG_OF_PERICENTER":"127.4176","OBJECT_ID":"2020-070BJ","RA_OF_ASC_NODE":"199.4306","TLE_LINE2":"2 46588  53.0495 199.4306 0001021 127.4176 232.6906 15.06421999129133","GP_ID":"224193585","BSTAR":"0.00076311000000","REF_FRAME":"TEME","SEMIMAJOR_AXIS":"6925.281","MEAN_MOTION_DDOT":"0.0000000000000","SITE":"AFETR","EPHEMERIS_TYPE":"0","RCS_SIZE":"LARGE","APOAPSIS":"547.853","OBJECT_TYPE":"PAYLOAD","EPOCH":"2023-02-01T10:53:04.896960","COUNTRY_CODE":"US","TLE_LINE1":"1 46588U 20070BJ  23032.45352890  .00011110  00000-0  76311-3 0  9991","TIME_SYSTEM":"UTC","ECCENTRICITY":"0.00010210","NORAD_CAT_ID":"46588","MEAN_ANOMALY":"232.6906","MEAN_MOTION":"15.06421999","PERIOD":"95.591","OBJECT_NAME":"STARLINK-1746"},{"PERIAPSIS":"546.341","DECAY_DATE":null,"ARG_OF_PERICENTER":"98.8961","MEAN_MOTION_DOT":"0.00002970","CENTER_NAME":"EARTH","FILE":"3767525","LAUNCH_DATE":"2020-10-06","MEAN_ELEMENT_THEORY":"SGP4","REV_AT_EPOCH":"12912","INCLINATION":"53.0522","CLASSIFICATION_TYPE":"U","ELEMENT_SET_NO":"999","EPHEMERIS_TYPE":"0","SITE":"AFETR","SEMIMAJOR_AXIS":"6925.327","BSTAR":"0.00021815000000","REF_FRAME":"TEME","MEAN_MOTION_DDOT":"0.0000000000000","GP_ID":"224194336","RA_OF_ASC_NODE":"199.4606","OBJECT_ID":"2020-070BK","TLE_LINE2":"2 46589  53.0522 199.4606 0001228  98.8961 261.2167 15.06407189129121","TLE_LINE1":"1 46589U 20070BK  23032.44615709  .00002970  00000-0  21815-3 0  9995","COUNTRY_CODE":"US","EPOCH":"2023-02-01T10:42:27.972576","RCS_SIZE":"LARGE","OBJECT_TYPE":"PAYLOAD","APOAPSIS":"548.042","OBJECT_NAME":"STARLINK-1749","PERIOD":"95.592","MEAN_MOTION":"15.06407189","NORAD_CAT_ID":"46589","MEAN_ANOMALY":"261.2167","ECCENTRICITY":"0.00012280","TIME_SYSTEM":"UTC"},{"GP_ID":"224195085","RA_OF_ASC_NODE":"200.4075","OBJECT_ID":"2020-070BM","TLE_LINE2":"2 46591  53.0526 200.4075 0001032  89.5131 270.5976 15.06402783128158","SITE":"AFETR","EPHEMERIS_TYPE":"0","BSTAR":"0.00001113700000","REF_FRAME":"TEME","SEMIMAJOR_AXIS":"6925.340","MEAN_MOTION_DDOT":"0.0000000000000","REV_AT_EPOCH":"12815","INCLINATION":"53.0526","MEAN_ELEMENT_THEORY":"SGP4","CLASSIFICATION_TYPE":"U","ELEMENT_SET_NO":"999","PERIAPSIS":"546.490","DECAY_DATE":null,"ARG_OF_PERICENTER":"89.5131","MEAN_MOTION_DOT":"-0.00000115","FILE":"3767525","LAUNCH_DATE":"2020-10-06","CENTER_NAME":"EARTH","NORAD_CAT_ID":"46591","MEAN_ANOMALY":"270.5976","TIME_SYSTEM":"UTC","ECCENTRICITY":"0.00010320","OBJECT_NAME":"STARLINK-1755","MEAN_MOTION":"15.06402783","PERIOD":"95.592","RCS_SIZE":"LARGE","APOAPSIS":"547.920","OBJECT_TYPE":"PAYLOAD","TLE_LINE1":"1 46591U 20070BM  23032.23604718 -.00000115  00000-0  11137-4 0  9990","EPOCH":"2023-02-01T05:39:54.476352","COUNTRY_CODE":"US"},{"PERIAPSIS":"546.295","DECAY_DATE":null,"ARG_OF_PERICENTER":"90.1220","MEAN_MOTION_DOT":"0.00000560","FILE":"3767628","LAUNCH_DATE":"2020-10-18","CENTER_NAME":"EARTH","REV_AT_EPOCH":"12689","MEAN_ELEMENT_THEORY":"SGP4","INCLINATION":"53.0507","CLASSIFICATION_TYPE":"U","ELEMENT_SET_NO":"999","SITE":"AFETR","EPHEMERIS_TYPE":"0","BSTAR":"0.00005646700000","REF_FRAME":"TEME","SEMIMAJOR_AXIS":"6925.358","MEAN_MOTION_DDOT":"0.0000000000000","GP_ID":"224203037","RA_OF_ASC_NODE":"289.3274","OBJECT_ID":"2020-073B","TLE_LINE2":"2 46671  53.0507 289.3274 0001340  90.1220 269.9923 15.06396894126890","TLE_LINE1":"1 46671U 20073B   23032.53003182  .00000560  00000-0  56467-4 0  9991","EPOCH":"2023-02-01T12:43:14.749248","COUNTRY_CODE":"US","RCS_SIZE":"LARGE","APOAPSIS":"548.151","OBJECT_TYPE":"PAYLOAD","OBJECT_NAME":"STARLINK-1715","PERIOD":"95.592","MEAN_MOTION":"15.06396894","NORAD_CAT_ID":"46671","MEAN_ANOMALY":"269.9923","TIME_SYSTEM":"UTC","ECCENTRICITY":"0.00013400"},{"RA_OF_ASC_NODE":"283.1175","OBJECT_ID":"2020-073C","TLE_LINE2":"2 46672  53.0519 283.1175 0001282 105.7385 254.3746 15.06389577127001","GP_ID":"224202639","SEMIMAJOR_AXIS":"6925.381","REF_FRAME":"TEME","BSTAR":"0.00010002000000","MEAN_MOTION_DDOT":"0.0000000000000","EPHEMERIS_TYPE":"0","SITE":"AFETR","CLASSIFICATION_TYPE":"U","ELEMENT_SET_NO":"999","REV_AT_EPOCH":"12700","INCLINATION":"53.0519","MEAN_ELEMENT_THEORY":"SGP4","MEAN_MOTION_DOT":"0.00001208","LAUNCH_DATE":"2020-10-18","FILE":"3767628","CENTER_NAME":"EARTH","PERIAPSIS":"546.358","DECAY_DATE":null,"ARG_OF_PERICENTER":"105.7385","TIME_SYSTEM":"UTC","ECCENTRICITY":"0.00012820","NORAD_CAT_ID":"46672","MEAN_ANOMALY":"254.3746","MEAN_MOTION":"15.06389577","PERIOD":"95.593","OBJECT_NAME":"STARLINK-1716","RCS_SIZE":"LARGE","APOAPSIS":"548.133","OBJECT_TYPE":"PAYLOAD","COUNTRY_CODE":"US","EPOCH":"2023-02-01T17:54:22.449888","TLE_LINE1":"1 46672U 20073C   23032.74609317  .00001208  00000-0  10002-3 0  9991"},{"TLE_LINE2":"2 46673  53.0543 298.3071 0001056  95.3212 264.7897 15.06398912126783","OBJECT_ID":"2020-073D","RA_OF_ASC_NODE":"298.3071","GP_ID":"224203042","MEAN_MOTION_DDOT":"0.0000000000000","SEMIMAJOR_AXIS":"6925.352","REF_FRAME":"TEME","BSTAR":"0.00007046400000","SITE":"AFETR","EPHEMERIS_TYPE":"0","ELEMENT_SET_NO":"999","CLASSIFICATION_TYPE":"U","REV_AT_EPOCH":"12678","INCLINATION":"53.0543","MEAN_ELEMENT_THEORY":"SGP4","FILE":"3767628","LAUNCH_DATE":"2020-10-18","CENTER_NAME":"EARTH","MEAN_MOTION_DOT":"0.00000768","ARG_OF_PERICENTER":"95.3212","PERIAPSIS":"546.486","DECAY_DATE":null,"TIME_SYSTEM":"UTC","ECCENTRICITY":"0.00010560","MEAN_ANOMALY":"264.7897","NORAD_CAT_ID":"46673","PERIOD":"95.592","MEAN_MOTION":"15.06398912","OBJECT_NAME":"STARLINK-1717","APOAPSIS":"547.948","OBJECT_TYPE":"PAYLOAD","RCS_SIZE":"LARGE","COUNTRY_CODE":"US","EPOCH":"2023-02-01T17:28:30.970272","TLE_LINE1":"1 46673U 20073D   23032.72813623  .00000768  00000-0  70464-4 0  9996"},{"TLE_LINE1":"1 46674U 20073E   23032.10841964  .00002711  00000-0  20080-3 0  9996","EPOCH":"2023-02-01T02:36:07.456896","COUNTRY_CODE":"US","APOAPSIS":"548.257","OBJECT_TYPE":"PAYLOAD","RCS_SIZE":"LARGE","OBJECT_NAME":"STARLINK-1718","PERIOD":"95.592","MEAN_MOTION":"15.06404268","MEAN_ANOMALY":"265.8031","NORAD_CAT_ID":"46674","TIME_SYSTEM":"UTC","ECCENTRICITY":"0.00015260","ARG_OF_PERICENTER":"94.3132","DECAY_DATE":null,"PERIAPSIS":"546.144","LAUNCH_DATE":"2020-10-18","FILE":"3767525","CENTER_NAME":"EARTH","MEAN_MOTION_DOT":"0.00002711","REV_AT_EPOCH":"12642","MEAN_ELEMENT_THEORY":"SGP4","INCLINATION":"53.0546","ELEMENT_SET_NO":"999","CLASSIFICATION_TYPE":"U","EPHEMERIS_TYPE":"0","SITE":"AFETR","MEAN_MOTION_DDOT":"0.0000000000000","BSTAR":"0.00020080000000","REF_FRAME":"TEME","SEMIMAJOR_AXIS":"6925.335","GP_ID":"224193593","TLE_LINE2":"2 46674  53.0546 285.9705 0001526  94.3132 265.8031 15.06404268126420","OBJECT_ID":"2020-073E","RA_OF_ASC_NODE":"285.9705"},{"OBJECT_NAME":"STARLINK-1720","PERIOD":"95.593","MEAN_MOTION":"15.06393703","NORAD_CAT_ID":"46675","MEAN_ANOMALY":"272.5599","ECCENTRICITY":"0.00013350","TIME_SYSTEM":"UTC","TLE_LINE1":"1 46675U 20073F   23032.76820919  .00000302  00000-0  39180-4 0  9992","COUNTRY_CODE":"US","EPOCH":"2023-02-01T18:26:13.274016","RCS_SIZE":"LARGE","APOAPSIS":"548.157","OBJECT_TYPE":"PAYLOAD","EPHEMERIS_TYPE":"0","SITE":"AFETR","SEMIMAJOR_AXIS":"6925.368","REF_FRAME":"TEME","BSTAR":"0.00003918000000","MEAN_MOTION_DDOT":"0.0000000000000","GP_ID":"224203049","OBJECT_ID":"2020-073F","RA_OF_ASC_NODE":"283.0141","TLE_LINE2":"2 46675  53.0525 283.0141 0001335  87.5543 272.5599 15.06393703127009","PERIAPSIS":"546.308","DECAY_DATE":null,"ARG_OF_PERICENTER":"87.5543","MEAN_MOTION_DOT":"0.00000302","FILE":"3767631","CENTER_NAME":"EARTH","LAUNCH_DATE":"2020-10-18","MEAN_ELEMENT_THEORY":"SGP4","REV_AT_EPOCH":"12700","INCLINATION":"53.0525","ELEMENT_SET_NO":"999","CLASSIFICATION_TYPE":"U"}];
